{
  "norad_id": 68623,
  "name": "STARLINK-37284",
  "history": [
    {
      "epoch": "2026-04-16T22:03:04.433184Z",
      "apogee_km": 328.190451132471,
      "perigee_km": 326.71629414494964,
      "latitude_deg": 1.0137884913765878e-05,
      "longitude_deg": 128.7363168517839,
      "height_km": 330.3809639527884,
      "semi_major_axis_km": 6705.59037263871,
      "eccentricity": 0.00010992,
      "inclination_deg": 97.285,
      "raan_deg": 304.5644,
      "arg_perigee_deg": 70.4291,
      "mean_anomaly_deg": 289.7096,
      "mean_motion_rev_day": 15.81055925
    }
  ]
}