STARLINK-37284          
1 68623U 26073X   26106.91880131 -.00557787  00000+0 -30675-2 0  9992
2 68623  97.2850 304.5644 0001099  70.4291 289.7096 15.81055925  1571
